start=new Date('2022-05-09T00:00:00.000Z').valueOf();
sats=[{"TLE_LINE2":"2 45401  53.0561 309.1241 0001392  65.8045 294.3090 15.06400563118680","REV_AT_EPOCH":"11868","OBJECT_NAME":"STARLINK-1256","ECCENTRICITY":"0.00013920","ELEMENT_SET_NO":"999","PERIAPSIS":"546.248","REF_FRAME":"TEME","SEMIMAJOR_AXIS":"6925.347","OBJECT_ID":"2020-019AT","APOAPSIS":"548.176","EPOCH":"2022-05-07T23:36:31.943520","FILE":"3435746","SITE":"AFETR","COUNTRY_CODE":"US","NORAD_CAT_ID":"45401","CLASSIFICATION_TYPE":"U","MEAN_ELEMENT_THEORY":"SGP4","GP_ID":"203013615","INCLINATION":"53.0561","RCS_SIZE":"LARGE","PERIOD":"95.592","MEAN_MOTION_DOT":"0.00000963","RA_OF_ASC_NODE":"309.1241","CENTER_NAME":"EARTH","OBJECT_TYPE":"PAYLOAD","BSTAR":"0.00008355100000","DECAY_DATE":null,"TLE_LINE1":"1 45401U 20019AT  22127.98370305  .00000963  00000-0  83551-4 0  9999","TIME_SYSTEM":"UTC","MEAN_ANOMALY":"294.3090","LAUNCH_DATE":"2020-03-18","MEAN_MOTION_DDOT":"0.0000000000000","MEAN_MOTION":"15.06400563","ARG_OF_PERICENTER":"65.8045","EPHEMERIS_TYPE":"0"},{"OBJECT_TYPE":"PAYLOAD","BSTAR":"0.00008298900000","TIME_SYSTEM":"UTC","TLE_LINE1":"1 45402U 20019AU  22128.51079349  .00000955  00000-0  82989-4 0  9999","DECAY_DATE":null,"RCS_SIZE":"LARGE","INCLINATION":"53.0555","GP_ID":"203013868","CENTER_NAME":"EARTH","MEAN_MOTION_DOT":"0.00000955","PERIOD":"95.593","RA_OF_ASC_NODE":"306.7503","ARG_OF_PERICENTER":"80.4492","EPHEMERIS_TYPE":"0","LAUNCH_DATE":"2020-03-18","MEAN_ANOMALY":"279.6646","MEAN_MOTION_DDOT":"0.0000000000000","MEAN_MOTION":"15.06388560","OBJECT_ID":"2020-019AU","SEMIMAJOR_AXIS":"6925.384","REF_FRAME":"TEME","FILE":"3435746","APOAPSIS":"548.161","EPOCH":"2022-05-08T12:15:32.557536","TLE_LINE2":"2 45402  53.0555 306.7503 0001317  80.4492 279.6646 15.06388560118779","REV_AT_EPOCH":"11877","ELEMENT_SET_NO":"999","PERIAPSIS":"546.337","ECCENTRICITY":"0.00013170","OBJECT_NAME":"STARLINK-1257","NORAD_CAT_ID":"45402","CLASSIFICATION_TYPE":"U","MEAN_ELEMENT_THEORY":"SGP4","COUNTRY_CODE":"US","SITE":"AFETR"},{"BSTAR":"0.00007100800000","OBJECT_TYPE":"PAYLOAD","TLE_LINE1":"1 45403U 20019AV  22128.45918613  .00000776  00000-0  71008-4 0  9990","TIME_SYSTEM":"UTC","DECAY_DATE":null,"GP_ID":"203014624","INCLINATION":"53.0533","RCS_SIZE":"LARGE","CENTER_NAME":"EARTH","MEAN_MOTION_DOT":"0.00000776","PERIOD":"95.592","RA_OF_ASC_NODE":"306.9969","ARG_OF_PERICENTER":"75.6342","EPHEMERIS_TYPE":"0","LAUNCH_DATE":"2020-03-18","MEAN_ANOMALY":"284.4810","MEAN_MOTION_DDOT":"0.0000000000000","MEAN_MOTION":"15.06394943","SEMIMAJOR_AXIS":"6925.364","OBJECT_ID":"2020-019AV","REF_FRAME":"TEME","FILE":"3435746","EPOCH":"2022-05-08T11:01:13.681632","APOAPSIS":"548.245","TLE_LINE2":"2 45403  53.0533 306.9969 0001467  75.6342 284.4810 15.06394943118757","REV_AT_EPOCH":"11875","PERIAPSIS":"546.213","ELEMENT_SET_NO":"999","OBJECT_NAME":"STARLINK-1259","ECCENTRICITY":"0.00014670","NORAD_CAT_ID":"45403","CLASSIFICATION_TYPE":"U","MEAN_ELEMENT_THEORY":"SGP4","SITE":"AFETR","COUNTRY_CODE":"US"},{"NORAD_CAT_ID":"45404","CLASSIFICATION_TYPE":"U","MEAN_ELEMENT_THEORY":"SGP4","SITE":"AFETR","COUNTRY_CODE":"US","SEMIMAJOR_AXIS":"6925.357","OBJECT_ID":"2020-019AW","REF_FRAME":"TEME","FILE":"3436024","APOAPSIS":"548.271","EPOCH":"2022-05-08T17:39:18.603072","REV_AT_EPOCH":"11870","TLE_LINE2":"2 45404  53.0568 305.7421 0001514  74.0209 286.0946 15.06397181118704","ELEMENT_SET_NO":"999","PERIAPSIS":"546.174","OBJECT_NAME":"STARLINK-1260","ECCENTRICITY":"0.00015140","ARG_OF_PERICENTER":"74.0209","EPHEMERIS_TYPE":"0","MEAN_MOTION_DDOT":"0.0000000000000","LAUNCH_DATE":"2020-03-18","MEAN_ANOMALY":"286.0946","MEAN_MOTION":"15.06397181","OBJECT_TYPE":"PAYLOAD","BSTAR":"0.00001968300000","TLE_LINE1":"1 45404U 20019AW  22128.73563198  .00000012  00000-0  19683-4 0  9990","TIME_SYSTEM":"UTC","DECAY_DATE":null,"GP_ID":"203026023","INCLINATION":"53.0568","RCS_SIZE":"LARGE","CENTER_NAME":"EARTH","PERIOD":"95.592","MEAN_MOTION_DOT":"0.00000012","RA_OF_ASC_NODE":"305.7421"},{"CLASSIFICATION_TYPE":"U","NORAD_CAT_ID":"45405","MEAN_ELEMENT_THEORY":"SGP4","SITE":"AFETR","COUNTRY_CODE":"US","REF_FRAME":"TEME","SEMIMAJOR_AXIS":"6925.388","OBJECT_ID":"2020-019AX","EPOCH":"2022-05-08T18:53:37.915296","APOAPSIS":"548.122","FILE":"3436024","TLE_LINE2":"2 45405  53.0565 305.5097 0001256  82.3115 277.8017 15.06387240118713","REV_AT_EPOCH":"11871","OBJECT_NAME":"STARLINK-1263","ECCENTRICITY":"0.00012560","PERIAPSIS":"546.383","ELEMENT_SET_NO":"999","ARG_OF_PERICENTER":"82.3115","EPHEMERIS_TYPE":"0","MEAN_MOTION_DDOT":"0.0000000000000","LAUNCH_DATE":"2020-03-18","MEAN_ANOMALY":"277.8017","MEAN_MOTION":"15.06387240","BSTAR":"0.00002532300000","OBJECT_TYPE":"PAYLOAD","DECAY_DATE":null,"TLE_LINE1":"1 45405U 20019AX  22128.78724439  .00000096  00000-0  25323-4 0  9993","TIME_SYSTEM":"UTC","GP_ID":"203026013","INCLINATION":"53.0565","RCS_SIZE":"LARGE","PERIOD":"95.593","RA_OF_ASC_NODE":"305.5097","MEAN_MOTION_DOT":"0.00000096","CENTER_NAME":"EARTH"},{"EPOCH":"2022-05-08T11:06:32.154624","APOAPSIS":"548.342","FILE":"3435746","REF_FRAME":"TEME","OBJECT_ID":"2020-019AY","SEMIMAJOR_AXIS":"6925.359","ECCENTRICITY":"0.00016140","OBJECT_NAME":"STARLINK-1265","ELEMENT_SET_NO":"999","PERIAPSIS":"546.107","TLE_LINE2":"2 45406  53.0555 306.9580 0001614  61.1658 298.9493 15.06396481118663","REV_AT_EPOCH":"11866","MEAN_ELEMENT_THEORY":"SGP4","NORAD_CAT_ID":"45406","CLASSIFICATION_TYPE":"U","COUNTRY_CODE":"US","SITE":"AFETR","DECAY_DATE":null,"TIME_SYSTEM":"UTC","TLE_LINE1":"1 45406U 20019AY  22128.46287216  .00001048  00000-0  89252-4 0  9995","BSTAR":"0.00008925200000","OBJECT_TYPE":"PAYLOAD","RA_OF_ASC_NODE":"306.9580","PERIOD":"95.592","MEAN_MOTION_DOT":"0.00001048","CENTER_NAME":"EARTH","RCS_SIZE":"LARGE","INCLINATION":"53.0555","GP_ID":"203014368","EPHEMERIS_TYPE":"0","ARG_OF_PERICENTER":"61.1658","MEAN_MOTION":"15.06396481","MEAN_MOTION_DDOT":"0.0000000000000","LAUNCH_DATE":"2020-03-18","MEAN_ANOMALY":"298.9493"},{"SITE":"AFETR","COUNTRY_CODE":"US","NORAD_CAT_ID":"45407","CLASSIFICATION_TYPE":"U","MEAN_ELEMENT_THEORY":"SGP4","TLE_LINE2":"2 45407  53.0556 306.6129 0001177  85.3282 274.7841 15.06383234118678","REV_AT_EPOCH":"11867","ELEMENT_SET_NO":"999","PERIAPSIS":"546.450","OBJECT_NAME":"STARLINK-1275","ECCENTRICITY":"0.00011770","SEMIMAJOR_AXIS":"6925.400","OBJECT_ID":"2020-019AZ","REF_FRAME":"TEME","FILE":"3435746","APOAPSIS":"548.080","EPOCH":"2022-05-08T13:01:55.060896","MEAN_MOTION_DDOT":"0.0000000000000","LAUNCH_DATE":"2020-03-18","MEAN_ANOMALY":"274.7841","MEAN_MOTION":"15.06383234","ARG_OF_PERICENTER":"85.3282","EPHEMERIS_TYPE":"0","INCLINATION":"53.0556","GP_ID":"203014125","RCS_SIZE":"LARGE","CENTER_NAME":"EARTH","RA_OF_ASC_NODE":"306.6129","PERIOD":"95.593","MEAN_MOTION_DOT":"-0.00000640","OBJECT_TYPE":"PAYLOAD","BSTAR":"-0.00002412200000","TLE_LINE1":"1 45407U 20019AZ  22128.54299839 -.00000640  00000-0 -24122-4 0  9993","TIME_SYSTEM":"UTC","DECAY_DATE":null},{"TLE_LINE2":"2 45408  53.0555 337.7309 0001562  70.7637 289.3521 15.06399457118225","REV_AT_EPOCH":"11822","PERIAPSIS":"546.133","ELEMENT_SET_NO":"999","ECCENTRICITY":"0.00015620","OBJECT_NAME":"STARLINK-1278","OBJECT_ID":"2020-019BA","SEMIMAJOR_AXIS":"6925.350","REF_FRAME":"TEME","FILE":"3435746","APOAPSIS":"548.297","EPOCH":"2022-05-08T06:58:23.830176","COUNTRY_CODE":"US","SITE":"AFETR","NORAD_CAT_ID":"45408","CLASSIFICATION_TYPE":"U","MEAN_ELEMENT_THEORY":"SGP4","RCS_SIZE":"LARGE","INCLINATION":"53.0555","GP_ID":"203012873","CENTER_NAME":"EARTH","MEAN_MOTION_DOT":"0.00000944","PERIOD":"95.592","RA_OF_ASC_NODE":"337.7309","BSTAR":"0.00008223400000","OBJECT_TYPE":"PAYLOAD","TIME_SYSTEM":"UTC","TLE_LINE1":"1 45408U 20019BA  22128.29055359  .00000944  00000-0  82234-4 0  9996","DECAY_DATE":null,"LAUNCH_DATE":"2020-03-18","MEAN_ANOMALY":"289.3521","MEAN_MOTION_DDOT":"0.0000000000000","MEAN_MOTION":"15.06399457","ARG_OF_PERICENTER":"70.7637","EPHEMERIS_TYPE":"0"},{"GP_ID":"203013616","INCLINATION":"53.0540","RCS_SIZE":"LARGE","PERIOD":"95.592","MEAN_MOTION_DOT":"0.00003459","RA_OF_ASC_NODE":"308.0497","CENTER_NAME":"EARTH","BSTAR":"0.00025101000000","OBJECT_TYPE":"PAYLOAD","DECAY_DATE":null,"TLE_LINE1":"1 45409U 20019BB  22128.21960249  .00003459  00000-0  25101-3 0  9995","TIME_SYSTEM":"UTC","MEAN_MOTION_DDOT":"0.0000000000000","LAUNCH_DATE":"2020-03-18","MEAN_ANOMALY":"290.6575","MEAN_MOTION":"15.06397626","ARG_OF_PERICENTER":"69.4589","EPHEMERIS_TYPE":"0","TLE_LINE2":"2 45409  53.0540 308.0497 0001638  69.4589 290.6575 15.06397626118639","REV_AT_EPOCH":"11863","OBJECT_NAME":"STARLINK-1282","ECCENTRICITY":"0.00016380","PERIAPSIS":"546.086","ELEMENT_SET_NO":"999","REF_FRAME":"TEME","SEMIMAJOR_AXIS":"6925.356","OBJECT_ID":"2020-019BB","EPOCH":"2022-05-08T05:16:13.655136","APOAPSIS":"548.355","FILE":"3435746","SITE":"AFETR","COUNTRY_CODE":"US","CLASSIFICATION_TYPE":"U","NORAD_CAT_ID":"45409","MEAN_ELEMENT_THEORY":"SGP4"},{"SITE":"AFETR","COUNTRY_CODE":"US","MEAN_ELEMENT_THEORY":"SGP4","NORAD_CAT_ID":"45410","CLASSIFICATION_TYPE":"U","OBJECT_NAME":"STARLINK-1285","ECCENTRICITY":"0.00014900","ELEMENT_SET_NO":"999","PERIAPSIS":"191.124","TLE_LINE2":"2 45410  53.0208 151.9444 0001490 253.7862 284.1555 16.30163480120846","REV_AT_EPOCH":"12084","APOAPSIS":"193.081","EPOCH":"2022-05-08T19:16:55.570944","FILE":"3435864","REF_FRAME":"TEME","SEMIMAJOR_AXIS":"6570.237","OBJECT_ID":"2020-019BC","MEAN_MOTION":"16.30163480","MEAN_MOTION_DDOT":"0.0000120860000","LAUNCH_DATE":"2020-03-18","MEAN_ANOMALY":"284.1555","EPHEMERIS_TYPE":"0","ARG_OF_PERICENTER":"253.7862","PERIOD":"88.335","RA_OF_ASC_NODE":"151.9444","MEAN_MOTION_DOT":"0.13490714","CENTER_NAME":"EARTH","GP_ID":"203020257","INCLINATION":"53.0208","RCS_SIZE":"LARGE","DECAY_DATE":null,"TLE_LINE1":"1 45410U 20019BC  22128.80342096  .13490714  12086-4  28408-2 0  9997","TIME_SYSTEM":"UTC","OBJECT_TYPE":"PAYLOAD","BSTAR":"0.00284080000000"}];
